start=new Date('2021-11-09T00:00:00.000Z').valueOf();
sats=[{"ELEMENT_SET_NO":"999","TLE_LINE1":"1 49146U 21082S   21312.91667824  .00098812  00000-0  82021-3 0  9993","LAUNCH_DATE":"2021-09-14","MEAN_ANOMALY":"273.6751","CLASSIFICATION_TYPE":"U","BSTAR":"0.00082021000000","SITE":"AFWTR","MEAN_MOTION_DOT":"0.00098812","FILE":"3209620","ECCENTRICITY":"0.00036790","DECAY_DATE":null,"OBJECT_TYPE":"PAYLOAD","TIME_SYSTEM":"UTC","EPOCH":"2021-11-08T22:00:00.999936","NORAD_CAT_ID":"49146","COUNTRY_CODE":"US","PERIAPSIS":"357.176","INCLINATION":"69.9993","EPHEMERIS_TYPE":"0","APOAPSIS":"362.134","TLE_LINE2":"2 49146  69.9993 330.0429 0003679 290.5443 273.6751 15.69735801  3665","OBJECT_NAME":"STARLINK-3116","PERIOD":"91.735","RA_OF_ASC_NODE":"330.0429","RCS_SIZE":"LARGE","GP_ID":"189304674","MEAN_ELEMENT_THEORY":"SGP4","MEAN_MOTION_DDOT":"0.0000000000000","CENTER_NAME":"EARTH","OBJECT_ID":"2021-082S","MEAN_MOTION":"15.69735801","REV_AT_EPOCH":"366","ARG_OF_PERICENTER":"290.5443","REF_FRAME":"TEME","SEMIMAJOR_AXIS":"6737.790"},{"CLASSIFICATION_TYPE":"U","MEAN_ANOMALY":"271.2878","LAUNCH_DATE":"2021-09-14","TLE_LINE1":"1 49147U 21082T   21312.91667824  .00098200  00000-0  81525-3 0  9993","ELEMENT_SET_NO":"999","OBJECT_TYPE":"PAYLOAD","DECAY_DATE":null,"ECCENTRICITY":"0.00041840","FILE":"3209620","MEAN_MOTION_DOT":"0.00098200","BSTAR":"0.00081525000000","SITE":"AFWTR","RCS_SIZE":"LARGE","RA_OF_ASC_NODE":"330.0464","OBJECT_NAME":"STARLINK-3071","PERIOD":"91.735","TLE_LINE2":"2 49147  69.9980 330.0464 0004184 288.6443 271.2878 15.69732058  3666","INCLINATION":"69.9980","EPHEMERIS_TYPE":"0","APOAPSIS":"362.485","COUNTRY_CODE":"US","PERIAPSIS":"356.847","TIME_SYSTEM":"UTC","NORAD_CAT_ID":"49147","EPOCH":"2021-11-08T22:00:00.999936","SEMIMAJOR_AXIS":"6737.801","REF_FRAME":"TEME","ARG_OF_PERICENTER":"288.6443","MEAN_MOTION":"15.69732058","REV_AT_EPOCH":"366","OBJECT_ID":"2021-082T","GP_ID":"189304558","MEAN_ELEMENT_THEORY":"SGP4","MEAN_MOTION_DDOT":"0.0000000000000","CENTER_NAME":"EARTH"},{"BSTAR":"-0.00001885400000","SITE":"AFWTR","FILE":"3209620","ECCENTRICITY":"0.00041170","MEAN_MOTION_DOT":"-0.00002466","DECAY_DATE":null,"OBJECT_TYPE":"PAYLOAD","ELEMENT_SET_NO":"999","LAUNCH_DATE":"2021-09-14","TLE_LINE1":"1 49148U 21082U   21312.91667824 -.00002466  00000-0 -18854-4 0  9991","MEAN_ANOMALY":"281.5027","CLASSIFICATION_TYPE":"U","OBJECT_ID":"2021-082U","CENTER_NAME":"EARTH","MEAN_MOTION_DDOT":"0.0000000000000","GP_ID":"189304791","MEAN_ELEMENT_THEORY":"SGP4","MEAN_MOTION":"15.69779944","ARG_OF_PERICENTER":"289.0724","REV_AT_EPOCH":"366","REF_FRAME":"TEME","SEMIMAJOR_AXIS":"6737.664","COUNTRY_CODE":"US","PERIAPSIS":"356.755","TIME_SYSTEM":"UTC","EPOCH":"2021-11-08T22:00:00.999936","NORAD_CAT_ID":"49148","APOAPSIS":"362.303","EPHEMERIS_TYPE":"0","INCLINATION":"69.9994","PERIOD":"91.733","OBJECT_NAME":"STARLINK-3048","TLE_LINE2":"2 49148  69.9994 330.0371 0004117 289.0724 281.5027 15.69779944  3667","RCS_SIZE":"LARGE","RA_OF_ASC_NODE":"330.0371"},{"RCS_SIZE":"LARGE","RA_OF_ASC_NODE":"330.0282","OBJECT_NAME":"STARLINK-3053","PERIOD":"91.781","TLE_LINE2":"2 49149  69.9998 330.0282 0003808 291.4732 276.0489 15.68950728  3666","EPHEMERIS_TYPE":"0","INCLINATION":"69.9998","APOAPSIS":"364.469","PERIAPSIS":"359.336","COUNTRY_CODE":"US","EPOCH":"2021-11-08T22:00:00.999936","TIME_SYSTEM":"UTC","NORAD_CAT_ID":"49149","SEMIMAJOR_AXIS":"6740.037","REF_FRAME":"TEME","MEAN_MOTION":"15.68950728","ARG_OF_PERICENTER":"291.4732","REV_AT_EPOCH":"366","OBJECT_ID":"2021-082V","GP_ID":"189304090","MEAN_ELEMENT_THEORY":"SGP4","CENTER_NAME":"EARTH","MEAN_MOTION_DDOT":"0.0000000000000","CLASSIFICATION_TYPE":"U","MEAN_ANOMALY":"276.0489","LAUNCH_DATE":"2021-09-14","TLE_LINE1":"1 49149U 21082V   21312.91667824 -.00657488  00000-0 -61491-2 0  9995","ELEMENT_SET_NO":"999","OBJECT_TYPE":"PAYLOAD","DECAY_DATE":null,"FILE":"3209620","ECCENTRICITY":"0.00038080","MEAN_MOTION_DOT":"-0.00657488","BSTAR":"-0.00614910000000","SITE":"AFWTR"},{"MEAN_ANOMALY":"285.5600","CLASSIFICATION_TYPE":"U","ELEMENT_SET_NO":"999","LAUNCH_DATE":"2021-09-14","TLE_LINE1":"1 49150U 21082W   21312.91667824 -.00657391  00000-0 -61269-2 0  9993","DECAY_DATE":null,"OBJECT_TYPE":"PAYLOAD","BSTAR":"-0.00612690000000","SITE":"AFWTR","ECCENTRICITY":"0.00036840","FILE":"3209620","MEAN_MOTION_DOT":"-0.00657391","OBJECT_NAME":"STARLINK-3104","PERIOD":"91.776","TLE_LINE2":"2 49150  69.9999 330.0212 0003684 288.5067 285.5600 15.69035749  3660","RCS_SIZE":"LARGE","RA_OF_ASC_NODE":"330.0212","COUNTRY_CODE":"US","PERIAPSIS":"359.176","TIME_SYSTEM":"UTC","EPOCH":"2021-11-08T22:00:00.999936","NORAD_CAT_ID":"49150","EPHEMERIS_TYPE":"0","INCLINATION":"69.9999","APOAPSIS":"364.142","REF_FRAME":"TEME","SEMIMAJOR_AXIS":"6739.794","OBJECT_ID":"2021-082W","GP_ID":"189304324","MEAN_ELEMENT_THEORY":"SGP4","MEAN_MOTION_DDOT":"0.0000000000000","CENTER_NAME":"EARTH","ARG_OF_PERICENTER":"288.5067","MEAN_MOTION":"15.69035749","REV_AT_EPOCH":"366"},{"REV_AT_EPOCH":"366","MEAN_MOTION":"15.69692353","ARG_OF_PERICENTER":"289.6418","OBJECT_ID":"2021-082X","MEAN_MOTION_DDOT":"0.0000000000000","CENTER_NAME":"EARTH","GP_ID":"189304207","MEAN_ELEMENT_THEORY":"SGP4","SEMIMAJOR_AXIS":"6737.914","REF_FRAME":"TEME","APOAPSIS":"362.518","INCLINATION":"69.9985","EPHEMERIS_TYPE":"0","PERIAPSIS":"357.040","COUNTRY_CODE":"US","TIME_SYSTEM":"UTC","NORAD_CAT_ID":"49151","EPOCH":"2021-11-08T22:00:00.999936","RCS_SIZE":"LARGE","RA_OF_ASC_NODE":"330.0297","PERIOD":"91.738","OBJECT_NAME":"STARLINK-3102","TLE_LINE2":"2 49151  69.9985 330.0297 0004065 289.6418 283.1017 15.69692353  3661","ECCENTRICITY":"0.00040650","FILE":"3209620","MEAN_MOTION_DOT":"0.00098384","SITE":"AFWTR","BSTAR":"0.00081811000000","OBJECT_TYPE":"PAYLOAD","DECAY_DATE":null,"LAUNCH_DATE":"2021-09-14","TLE_LINE1":"1 49151U 21082X   21312.91667824  .00098384  00000-0  81811-3 0  9999","ELEMENT_SET_NO":"999","CLASSIFICATION_TYPE":"U","MEAN_ANOMALY":"283.1017"},{"MEAN_ANOMALY":"288.2996","CLASSIFICATION_TYPE":"U","ELEMENT_SET_NO":"999","LAUNCH_DATE":"2021-09-14","TLE_LINE1":"1 49152U 21082Y   21312.91667824  .00099763  00000-0  82871-3 0  9999","DECAY_DATE":null,"OBJECT_TYPE":"PAYLOAD","SITE":"AFWTR","BSTAR":"0.00082871000000","ECCENTRICITY":"0.00037260","FILE":"3209620","MEAN_MOTION_DOT":"0.00099763","OBJECT_NAME":"STARLINK-3081","PERIOD":"91.736","TLE_LINE2":"2 49152  69.9993 330.0230 0003726 292.9133 288.2996 15.69714572  3662","RCS_SIZE":"LARGE","RA_OF_ASC_NODE":"330.0230","PERIAPSIS":"357.205","COUNTRY_CODE":"US","TIME_SYSTEM":"UTC","EPOCH":"2021-11-08T22:00:00.999936","NORAD_CAT_ID":"49152","INCLINATION":"69.9993","EPHEMERIS_TYPE":"0","APOAPSIS":"362.226","REF_FRAME":"TEME","SEMIMAJOR_AXIS":"6737.851","OBJECT_ID":"2021-082Y","GP_ID":"189304908","MEAN_ELEMENT_THEORY":"SGP4","CENTER_NAME":"EARTH","MEAN_MOTION_DDOT":"0.0000000000000","ARG_OF_PERICENTER":"292.9133","MEAN_MOTION":"15.69714572","REV_AT_EPOCH":"366"},{"TLE_LINE1":"1 49153U 21082Z   21312.91667824  .00099734  00000-0  82775-3 0  9991","LAUNCH_DATE":"2021-09-14","ELEMENT_SET_NO":"999","CLASSIFICATION_TYPE":"U","MEAN_ANOMALY":"287.7587","MEAN_MOTION_DOT":"0.00099734","FILE":"3209620","ECCENTRICITY":"0.00037270","BSTAR":"0.00082775000000","SITE":"AFWTR","OBJECT_TYPE":"PAYLOAD","DECAY_DATE":null,"APOAPSIS":"362.166","EPHEMERIS_TYPE":"0","INCLINATION":"69.9996","TIME_SYSTEM":"UTC","NORAD_CAT_ID":"49153","EPOCH":"2021-11-08T22:00:00.999936","COUNTRY_CODE":"US","PERIAPSIS":"357.144","RA_OF_ASC_NODE":"330.0296","RCS_SIZE":"LARGE","TLE_LINE2":"2 49153  69.9996 330.0296 0003727 289.2167 287.7587 15.69735782  3661","PERIOD":"91.735","OBJECT_NAME":"STARLINK-3072","MEAN_MOTION":"15.69735782","REV_AT_EPOCH":"366","ARG_OF_PERICENTER":"289.2167","CENTER_NAME":"EARTH","MEAN_MOTION_DDOT":"0.0000000000000","MEAN_ELEMENT_THEORY":"SGP4","GP_ID":"189304441","OBJECT_ID":"2021-082Z","SEMIMAJOR_AXIS":"6737.790","REF_FRAME":"TEME"},{"NORAD_CAT_ID":"49154","TIME_SYSTEM":"UTC","EPOCH":"2021-11-08T22:00:00.999936","PERIAPSIS":"356.995","COUNTRY_CODE":"US","INCLINATION":"69.9998","EPHEMERIS_TYPE":"0","APOAPSIS":"362.330","TLE_LINE2":"2 49154  69.9998 330.0221 0003959 291.0899 292.2941 15.69733293  3662","OBJECT_NAME":"STARLINK-3068","PERIOD":"91.735","RA_OF_ASC_NODE":"330.0221","RCS_SIZE":"LARGE","GP_ID":"189304675","MEAN_ELEMENT_THEORY":"SGP4","CENTER_NAME":"EARTH","MEAN_MOTION_DDOT":"0.0000000000000","OBJECT_ID":"2021-082AA","MEAN_MOTION":"15.69733293","REV_AT_EPOCH":"366","ARG_OF_PERICENTER":"291.0899","REF_FRAME":"TEME","SEMIMAJOR_AXIS":"6737.797","ELEMENT_SET_NO":"999","TLE_LINE1":"1 49154U 21082AA  21312.91667824  .00031435  00000-0  26426-3 0  9997","LAUNCH_DATE":"2021-09-14","MEAN_ANOMALY":"292.2941","CLASSIFICATION_TYPE":"U","BSTAR":"0.00026426000000","SITE":"AFWTR","MEAN_MOTION_DOT":"0.00031435","ECCENTRICITY":"0.00039590","FILE":"3209620","DECAY_DATE":null,"OBJECT_TYPE":"PAYLOAD"},{"BSTAR":"0.00191160000000","SITE":"AFWTR","FILE":"3209620","ECCENTRICITY":"0.00043550","MEAN_MOTION_DOT":"0.00231944","DECAY_DATE":null,"OBJECT_TYPE":"PAYLOAD","ELEMENT_SET_NO":"999","LAUNCH_DATE":"2021-09-14","TLE_LINE1":"1 49155U 21082AB  21312.91667824  .00231944  00000-0  19116-2 0  9992","MEAN_ANOMALY":"281.7246","CLASSIFICATION_TYPE":"U","OBJECT_ID":"2021-082AB","MEAN_MOTION_DDOT":"0.0000000000000","CENTER_NAME":"EARTH","MEAN_ELEMENT_THEORY":"SGP4","GP_ID":"189304559","ARG_OF_PERICENTER":"297.6957","MEAN_MOTION":"15.69489000","REV_AT_EPOCH":"366","REF_FRAME":"TEME","SEMIMAJOR_AXIS":"6738.496","PERIAPSIS":"357.427","COUNTRY_CODE":"US","EPOCH":"2021-11-08T22:00:00.999936","TIME_SYSTEM":"UTC","NORAD_CAT_ID":"49155","APOAPSIS":"363.296","INCLINATION":"69.9984","EPHEMERIS_TYPE":"0","PERIOD":"91.750","OBJECT_NAME":"STARLINK-3060","TLE_LINE2":"2 49155  69.9984 330.0226 0004355 297.6957 281.7246 15.69489000  3666","RCS_SIZE":"LARGE","RA_OF_ASC_NODE":"330.0226"}];
